OBJECT_NAME,OBJECT_ID,EPOCH,MEAN_MOTION,ECCENTRICITY,INCLINATION,RA_OF_ASC_NODE,ARG_OF_PERICENTER,MEAN_ANOMALY,EPHEMERIS_TYPE,CLASSIFICATION_TYPE,NORAD_CAT_ID,ELEMENT_SET_NO,REV_AT_EPOCH,BSTAR,MEAN_MOTION_DOT,MEAN_MOTION_DDOT
ONEWEB-0063,2020-020AA,2026-07-17T11:07:51.077568,13.11418496,.0001897,87.8895,15.0418,81.8864,278.2479,0,U,45448,999,30666,.32091E-3,.126E-5,0
ONEWEB-0019,2020-020AB,2026-07-17T12:03:36.279936,13.11414981,.0001993,87.8887,15.0184,96.2130,263.9225,0,U,45449,999,30651,-.23888E-3,-.72E-6,0
ONEWEB-0094,2020-020AC,2026-07-17T10:12:47.285856,13.17648938,.000183,87.9156,359.8364,100.5779,259.5559,0,U,45450,999,31029,.9143E-4,.48E-6,0
ONEWEB-0087,2020-020AD,2026-07-17T11:22:06.364128,13.11418052,.0001591,87.8902,15.0164,96.4230,263.7080,0,U,45451,999,30655,.14189E-2,.516E-5,0
ONEWEB-0082,2020-020AE,2026-07-17T11:17:13.311744,13.11418403,.0001355,87.8895,15.0312,89.4983,270.6300,0,U,45452,999,30664,.97452E-3,.358E-5,0
ONEWEB-0050,2020-020AF,2026-07-17T13:21:56.492640,14.90475850,.0002584,88.9279,229.0850,168.1524,191.9767,0,U,45453,999,34490,.68218E-4,.687E-5,0
ONEWEB-0034,2020-020AG,2026-07-17T01:12:08.727264,13.11415180,.0001799,87.8892,15.1239,89.8724,270.2610,0,U,45454,999,30650,-.10425E-2,-.357E-5,0
ONEWEB-0060,2020-020AH,2026-07-17T11:06:26.040096,13.11418608,.0001309,87.8889,15.0374,123.0699,237.0555,0,U,45455,999,30651,.10612E-3,.5E-6,0
ONEWEB-0086,2020-020AJ,2026-07-17T10:35:41.815680,13.11417472,.0001925,87.8893,15.0395,114.3465,245.7864,0,U,45456,999,30657,-.15351E-2,-.531E-5,0
ONEWEB-0088,2020-020AK,2026-07-17T11:54:01.714752,13.11415362,.0001687,87.8902,15.0034,79.1998,280.9320,0,U,45457,999,30651,.52814E-3,.2E-5,0
ONEWEB-0102,2020-100A,2026-07-16T22:37:29.433792,13.12442616,.0002084,87.8964,344.7575,104.1235,256.0125,0,U,47258,999,26863,.86329E-3,.323E-5,0
ONEWEB-0109,2020-100B,2026-07-17T15:17:42.995616,13.12443215,.000202,87.8976,344.6056,97.5854,262.5504,0,U,47259,999,26855,.83237E-3,.312E-5,0
ONEWEB-0110,2020-100C,2026-07-17T08:37:37.595424,13.12443244,.000184,87.8975,344.6449,105.5984,254.5347,0,U,47260,999,26868,-.1198E-2,-.418E-5,0
ONEWEB-0111,2020-100D,2026-07-17T16:40:40.141056,13.12443862,.0001776,87.8974,344.5971,97.9824,262.1506,0,U,47261,999,26856,.93137E-3,.348E-5,0
ONEWEB-0114,2020-100E,2026-07-17T15:34:47.379072,13.12441858,.0002067,87.8978,344.6045,95.3782,264.7582,0,U,47262,999,26851,-.2696E-3,-.84E-6,0
ONEWEB-0117,2020-100F,2026-07-17T15:22:35.863104,13.12441440,.0001894,87.8973,344.5958,98.8717,261.2626,0,U,47263,999,26852,.68819E-3,.26E-5,0
ONEWEB-0118,2020-100G,2026-07-17T16:11:23.261856,13.12442593,.000196,87.8973,344.5920,86.9224,273.2129,0,U,47264,999,26872,-.94405E-3,-.327E-5,0
ONEWEB-0119,2020-100H,2026-07-17T09:28:51.970080,13.12442814,.000187,87.8963,344.6613,95.6643,264.4699,0,U,47265,999,26866,.13003E-2,.481E-5,0
ONEWEB-0120,2020-100J,2026-07-17T15:32:33.163584,13.12441485,.0002075,87.8964,344.6123,96.8061,263.3303,0,U,47266,999,26872,.31668E-4,.24E-6,0
ONEWEB-0121,2020-100K,2026-07-16T22:47:14.627904,13.12441376,.000158,87.8974,344.7402,101.4668,258.6637,0,U,47267,999,26854,.52515E-3,.202E-5,0
ONEWEB-0122,2020-100L,2026-07-17T09:37:23.954016,13.12441402,.0002041,87.8975,344.6554,101.4671,258.6687,0,U,47268,999,26851,.1274E-2,.471E-5,0
ONEWEB-0123,2020-100M,2026-07-17T16:50:25.440576,13.12443200,.0001882,87.8963,344.5996,93.0746,267.0598,0,U,47269,999,26869,.13551E-2,.5E-5,0
ONEWEB-0124,2020-100N,2026-07-17T09:16:39.577152,13.12443869,.0001767,87.8962,344.6646,97.6954,262.4375,0,U,47270,999,26853,.8945E-3,.335E-5,0
ONEWEB-0125,2020-100P,2026-07-17T08:44:55.855968,13.12443703,.0001585,87.8974,344.6562,91.8366,268.2944,0,U,47271,999,26859,-.95777E-3,-.332E-5,0
ONEWEB-0126,2020-100Q,2026-07-17T09:14:26.142720,13.12443559,.0001993,87.8967,344.6658,94.5169,265.6187,0,U,47272,999,26866,.75266E-3,.283E-5,0
ONEWEB-0127,2020-100R,2026-07-16T23:16:30.619776,13.12442110,.0002015,87.8962,344.7457,96.1240,264.0118,0,U,47273,999,26863,-.13126E-2,-.459E-5,0
ONEWEB-0128,2020-100S,2026-07-17T08:57:08.133120,13.12444301,.000184,87.8962,344.6792,106.0523,254.0808,0,U,47274,999,26870,-.30115E-3,-.96E-6,0
ONEWEB-0129,2020-100T,2026-07-17T08:27:51.647904,13.12441986,.0002967,87.8973,344.6599,91.0993,269.0476,0,U,47275,999,26863,-.10304E-2,-.358E-5,0
ONEWEB-0130,2020-100U,2026-07-17T09:06:54.191232,13.12444209,.0001963,87.8974,344.6504,97.7600,262.3751,0,U,47276,999,26860,.28204E-3,.114E-5,0
ONEWEB-0131,2020-100V,2026-07-17T16:21:09.034848,13.12444112,.0001893,87.8962,344.6055,102.1260,258.0081,0,U,47277,999,26868,-.17519E-3,-.5E-6,0
